NORAD_CAT_ID,OBJECT_NAME,OBJECT_TYPE,EPOCH,MEAN_MOTION,ECCENTRICITY,INCLINATION,RA_OF_ASC_NODE,ARG_OF_PERICENTER,MEAN_ANOMALY,BSTAR,MEAN_MOTION_DOT,MEAN_MOTION_DDOT,TLE_LINE0,TLE_LINE1,TLE_LINE2,SEMIMAJOR_AXIS,PERIOD,APOGEE,PERIGEE,DECAYED
49750.0,STARLINK-3236,PAYLOAD,2022-11-23 19:12:47,15.08830787,0.0002455,53.2158,144.6153,45.8595,314.2599,-1.7672e-05,-5.700000000000001e-06,0.0,0 STARLINK-3236,1 49750U 21115AC  22327.80054617 -.00000570  00000-0 -17672-4 0  9993,2 49750  53.2158 144.6153 0002455  45.8595 314.2599 15.08830787 55209,6917.909000000002,95.438,541.472,538.075,0.0
49750.0,STARLINK-3236,PAYLOAD,2022-11-24 04:45:06,15.0883194,0.000248,53.2158,142.83100000000005,45.7311,314.3885,-1.5725999999999998e-05,-5.39e-06,0.0,0 STARLINK-3236,1 49750U 21115AC  22328.19798797 -.00000539  00000-0 -15726-4 0  9993,2 49750  53.2158 142.8310 0002480  45.7311 314.3885 15.08831940 54151,6917.905,95.438,541.486,538.054,0.0
49750.0,STARLINK-3236,PAYLOAD,2022-11-24 20:38:57,15.08828577,0.0002505,53.2159,139.8573,46.5124,313.6076,8.9341e-05,1.133e-05,0.0,0 STARLINK-3236,1 49750U 21115AC  22328.86039067  .00001133  00000-0  89341-4 0  9998,2 49750  53.2159 139.8573 0002505  46.5124 313.6076 15.08828577 55368,6917.915,95.438,541.513,538.047,0.0
49750.0,STARLINK-3236,PAYLOAD,2022-11-25 10:57:26,15.08831449,0.0002476,53.2161,137.1806,48.0073,312.113,9.0657e-05,1.154e-05,0.0,0 STARLINK-3236,1 49750U 21115AC  22329.45655258  .00001154  00000-0  90657-4 0  9995,2 49750  53.2161 137.1806 0002476  48.0073 312.1130 15.08831449 54342,6917.906999999997,95.438,541.484,538.059,0.0
49750.0,STARLINK-3236,PAYLOAD,2022-11-25 18:54:21,15.08837373,0.0002513,53.216,135.694,48.6338,311.487,0.00010963,1.457e-05,0.0,0 STARLINK-3236,1 49750U 21115AC  22329.78775057  .00001457  00000-0  10963-3 0  9998,2 49750  53.2160 135.6940 0002513  48.6338 311.4870 15.08837373 54395,6917.888000000001,95.438,541.492,538.015,0.0
49750.0,STARLINK-3236,PAYLOAD,2022-11-26 10:48:12,15.08842392,0.0002517,53.2159,132.7204,49.3531,310.7679,0.00013027,1.786e-05,0.0,0 STARLINK-3236,1 49750U 21115AC  22330.45014727  .00001786  00000-0  13027-3 0  9993,2 49750  53.2159 132.7204 0002517  49.3531 310.7679 15.08842392 54498,6917.873000000001,95.437,541.479,537.997,0.0
49750.0,STARLINK-3236,PAYLOAD,2022-11-26 20:20:31,15.08848197,0.0002549,53.2157,130.9361,50.5475,309.5742,0.0001349,1.86e-05,0.0,0 STARLINK-3236,1 49750U 21115AC  22330.84758277  .00001860  00000-0  13490-3 0  9998,2 49750  53.2157 130.9361 0002549  50.5475 309.5742 15.08848197 55662,6917.855,95.437,541.484,537.957,0.0
49750.0,STARLINK-3236,PAYLOAD,2022-11-27 10:38:59,15.08849714,0.0002572,53.2156,128.2596,51.5103,308.612,0.00012183,1.652e-05,0.0,0 STARLINK-3236,1 49750U 21115AC  22331.44373849  .00001652  00000-0  12183-3 0  9990,2 49750  53.2156 128.2596 0002572  51.5103 308.6120 15.08849714 54649,6917.851,95.437,541.495,537.936,0.0
49750.0,STARLINK-3236,PAYLOAD,2022-11-27 20:11:18,15.0884313,0.0002459,53.2158,126.4751,51.5097,308.6115,2.4345e-05,9.9e-07,0.0,0 STARLINK-3236,1 49750U 21115AC  22331.84118447  .00000099  00000-0  24345-4 0  9993,2 49750  53.2158 126.4751 0002459  51.5097 308.6115 15.08843130 55810,6917.871,95.437,541.437,538.035,0.0
49750.0,STARLINK-3236,PAYLOAD,2022-11-28 16:51:18,15.08851664,0.0002519,53.2156,122.6096,50.8925,309.2291,7.2394e-05,8.64e-06,0.0,0 STARLINK-3236,1 49750U 21115AC  22332.70229357  .00000864  00000-0  72394-4 0  9999,2 49750  53.2156 122.6096 0002519  50.8925 309.2291 15.08851664 55944,6917.845,95.437,541.452,537.967,0.0
49750.0,STARLINK-3236,PAYLOAD,2022-11-28 20:02:04,15.08847827,0.0002383,53.2163,122.0135,49.495,310.625,-2.2395e-05,-6.45e-06,0.0,0 STARLINK-3236,1 49750U 21115AC  22332.83477707 -.00000645  00000-0 -22395-4 0  9992,2 49750  53.2163 122.0135 0002383  49.4950 310.6250 15.08847827 55960,6917.856,95.437,541.37,538.073,0.0
49750.0,STARLINK-3236,PAYLOAD,2022-11-29 10:20:33,15.0883529,0.000259,53.2167,119.3388,52.7663,307.3565,2.8097e-05,1.59e-06,0.0,0 STARLINK-3236,1 49750U 21115AC  22333.43094291  .00000159  00000-0  28097-4 0  9995,2 49750  53.2167 119.3388 0002590  52.7663 307.3565 15.08835290 56055,6917.895,95.438,541.552,537.9680000000002,0.0
49750.0,STARLINK-3236,PAYLOAD,2022-11-29 13:31:19,15.08837785,0.0002456,53.2166,118.7441,53.639,306.4828,5.1475e-05,5.31e-06,0.0,0 STARLINK-3236,1 49750U 21115AC  22333.56342095  .00000531  00000-0  51475-4 0  9997,2 49750  53.2166 118.7441 0002456  53.6390 306.4828 15.08837785 54966,6917.887,95.438,541.451,538.053,0.0
49750.0,STARLINK-3236,PAYLOAD,2022-11-30 08:35:57,15.0883894,0.0002569,53.2168,115.1763,54.8339,305.2894,2.1314e-05,5.1e-07,0.0,0 STARLINK-3236,1 49750U 21115AC  22334.35830223  .00000051  00000-0  21314-4 0  9996,2 49750  53.2168 115.1763 0002569  54.8339 305.2894 15.08838940 55085,6917.884,95.438,541.526,537.971,0.0
49750.0,STARLINK-3236,PAYLOAD,2022-11-30 16:32:53,15.08837461,0.0002557,53.2168,113.689,54.5346,305.5885,-2.6549e-05,-7.11e-06,0.0,0 STARLINK-3236,1 49750U 21115AC  22334.68950505 -.00000711  00000-0 -26549-4 0  9998,2 49750  53.2168 113.6890 0002557  54.5346 305.5885 15.08837461 56240,6917.888000000001,95.438,541.5219999999998,537.984,0.0
49750.0,STARLINK-3236,PAYLOAD,2022-12-01 11:37:30,15.08844924,0.0002491,53.2162,110.1198,50.5604,309.5608,0.000113,1.511e-05,0.0,0 STARLINK-3236,1 49750U 21115AC  22335.48437853  .00001511  00000-0  11300-3 0  9998,2 49750  53.2162 110.1198 0002491  50.5604 309.5608 15.08844924 55256,6917.865,95.437,541.4540000000002,538.007,0.0
49750.0,STARLINK-3236,PAYLOAD,2022-12-01 16:23:39,15.08845725,0.0002505,53.2162,109.2278,50.8114,309.31,0.00011406,1.528e-05,0.0,0 STARLINK-3236,1 49750U 21115AC  22335.68309771  .00001528  00000-0  11406-3 0  9992,2 49750  53.2162 109.2278 0002505  50.8114 309.3100 15.08845725 56390,6917.863,95.437,541.461,537.995,0.0
49750.0,STARLINK-3236,PAYLOAD,2022-12-02 01:55:58,15.08839913,0.0002477,53.2162,107.4433,49.8964,310.2245,0.00010015,1.306e-05,0.0,0 STARLINK-3236,1 49750U 21115AC  22336.08054187  .00001306  00000-0  10015-3 0  9994,2 49750  53.2162 107.4433 0002477  49.8964 310.2245 15.08839913 56452,6917.880999999999,95.438,541.4590000000002,538.0319999999998,0.0
49750.0,STARLINK-3236,PAYLOAD,2022-12-02 09:52:54,15.08841659,0.0002628,53.2161,105.956,51.0162,309.1064,0.00013565,1.871e-05,0.0,0 STARLINK-3236,1 49750U 21115AC  22336.41174099  .00001871  00000-0  13565-3 0  9996,2 49750  53.2161 105.9560 0002628  51.0162 309.1064 15.08841659 55396,6917.875,95.437,541.558,537.922,0.0
49750.0,STARLINK-3236,PAYLOAD,2022-12-03 14:29:51,15.08833503,0.0002694,53.2148,100.6036,53.3538,306.7702,-8.329e-05,-1.614e-05,0.0,0 STARLINK-3236,1 49750U 21115AC  22337.60407371 -.00001614  00000-0 -83290-4 0  9990,2 49750  53.2148 100.6036 0002694  53.3538 306.7702 15.08833503 56680,6917.9,95.438,541.629,537.9019999999998,0.0
49750.0,STARLINK-3236,PAYLOAD,2022-12-03 16:05:15,15.08829286,0.0002447,53.2169,100.3077,51.6152,308.506,-7.691e-05,-1.512e-05,0.0,0 STARLINK-3236,1 49750U 21115AC  22337.67031626 -.00001512  00000-0 -76910-4 0  9991,2 49750  53.2169 100.3077 0002447  51.6152 308.5060 15.08829286 55582,6917.913000000001,95.438,541.471,538.085,0.0
49750.0,STARLINK-3236,PAYLOAD,2022-12-04 14:20:38,15.08840234,0.0002299,53.2169,96.1432,49.2159,310.9032,0.00010791,1.4300000000000004e-05,0.0,0 STARLINK-3236,1 49750U 21115AC  22338.59766763  .00001430  00000-0  10791-3 0  9991,2 49750  53.2169  96.1432 0002299  49.2159 310.9032 15.08840234 55722,6917.88,95.438,541.335,538.154,0.0
49750.0,STARLINK-3236,PAYLOAD,2022-12-04 19:06:47,15.08847037,0.0002497,53.2169,95.251,61.8173,298.3071,0.00012974,1.777e-05,0.0,0 STARLINK-3236,1 49750U 21115AC  22338.79638395  .00001777  00000-0  12974-3 0  9991,2 49750  53.2169  95.2510 0002497  61.8173 298.3071 15.08847037 55758,6917.859,95.437,541.451,537.996,0.0
49750.0,STARLINK-3236,PAYLOAD,2022-12-05 01:28:19,15.088472,0.0002328,53.217,94.0618,50.3833,309.7365,0.0003113,4.671e-05,0.0,0 STARLINK-3236,1 49750U 21115AC  22339.06134021  .00004671  00000-0  31130-3 0  9990,2 49750  53.2170  94.0618 0002328  50.3833 309.7365 15.08847200 56908,6917.858,95.437,541.3340000000002,538.113,0.0
49750.0,STARLINK-3236,PAYLOAD,2022-12-05 14:11:25,15.08852459,0.0002719,53.2162,91.6824,57.5618,302.5637,0.00039858,6.063e-05,0.0,0 STARLINK-3236,1 49750U 21115AC  22339.59126517  .00006063  00000-0  39858-3 0  9991,2 49750  53.2162  91.6824 0002719  57.5618 302.5637 15.08852459 56988,6917.842,95.437,541.5880000000002,537.826,0.0
49750.0,STARLINK-3236,PAYLOAD,2022-12-05 18:57:34,15.08846947,0.000246,53.2162,90.7914,48.7542,311.3662,0.00027919,4.159e-05,0.0,0 STARLINK-3236,1 49750U 21115AC  22339.78998734  .00004159  00000-0  27919-3 0  9999,2 49750  53.2162  90.7914 0002460  48.7542 311.3662 15.08846947 55901,6917.859,95.437,541.4259999999998,538.0219999999998,0.0
49750.0,STARLINK-3236,PAYLOAD,2022-12-06 14:02:12,15.08829934,0.0002352,53.2167,87.2249,41.279,318.8379,-0.00016522,-2.916e-05,0.0,0 STARLINK-3236,1 49750U 21115AC  22340.58486911 -.00002916  00000-0 -16522-3 0  9997,2 49750  53.2167  87.2249 0002352  41.2790 318.8379 15.08829934 57132,6917.911,95.438,541.403,538.149,0.0
49750.0,STARLINK-3236,PAYLOAD,2022-12-06 18:48:21,15.08833222,0.0002346,53.2159,86.331,42.2788,317.8385,-0.00014236,-2.553e-05,0.0,0 STARLINK-3236,1 49750U 21115AC  22340.78358730 -.00002553  00000-0 -14236-3 0  9993,2 49750  53.2159  86.3310 0002346  42.2788 317.8385 15.08833222 56054,6917.901,95.438,541.389,538.143,0.0
49750.0,STARLINK-3236,PAYLOAD,2022-12-07 07:31:26,15.088378400000002,0.00023,53.2161,83.9518,42.6793,317.4377,-8.4005e-05,-1.625e-05,0.0,0 STARLINK-3236,1 49750U 21115AC  22341.31350664 -.00001625  00000-0 -84005-4 0  9992,2 49750  53.2161  83.9518 0002300  42.6793 317.4377 15.08837840 57249,6917.887,95.438,541.3430000000002,538.161,0.0
